#cP2024 11 20  6  0  0.00000000     576   u+U IGS20 FIT  GFZ
## 2341 280800.00000000   300.00000000 60634 0.2500000000000
+   74   E02E03E04E05E07E08E09E10E11E12E13E14E15E18E19E21E24
+        E25E26E27E30E31E33E34E36G02G03G04G05G06G07G08G09G10
+        G11G13G14G15G16G17G18G19G20G21G22G23G24G25G26G27G28
+        G29G30G31G32R01R03R04R05R07R08R09R11R12R14R15R16R17
+        R18R19R20R21R22R24 00 00 00 00 00 00 00 00 00 00 00
++         8  8  8  8  8  8  8  8  8  8  8  8  8  8  8  8  8
++         8  8  8  8  8  8  8  8  8  8  8  8  8  8  8  8  8
++         8  8  8  8  8  8  8  8  8  8  8  8  8  8  8  8  8
++         8  8  8  8  8  8 10  8  8  8  8  8  8  8  8  8  8
++         8  8 10  8  8  8  0  0  0  0  0  0  0  0  0  0  0
%c M  cc GPS ccc cccc cccc cccc cccc ccccc ccccc ccccc ccccc
%c cc cc ccc ccc cccc cccc cccc cccc ccccc ccccc ccccc ccccc
%f  1.2500000  1.025000000  0.00000000000  0.000000000000000
%f  0.0000000  0.000000000  0.00000000000  0.000000000000000
%i    0    0    0    0      0      0      0      0         0
%i    0    0    0    0      0      0      0      0         0
/* PCV:IGS20_2335 OL/AL:FES2014b NONE     YN CLK:CoN ORB:CoN
/*     GeoForschungsZentrum Potsdam
/*                                                   
/*                                                   
*  2024 11 21  7 25  0.00000000
PE02   8903.496928  27779.273294   4954.621829    176.418621                    
PE03   -949.414086  23378.175049  18124.640940   -154.859748                    
PE04 -15111.786232  -7820.483136 -24221.524929    -87.655693                    
PE05 -16062.928510  24815.740913   1523.020027   4803.624795                    
PE07  21876.739155 -11476.689498  16297.043756   -154.003612                    
PE08  14496.269327   8502.714628  24358.035352   -371.378718                    
PE09 -21812.223711  11459.297524 -16418.349528   -671.403525                    
PE10 -29285.929005  -3895.007774   1923.793557   -671.312452                    
PE11 -28202.145156   2891.357688  -8502.014890    667.804596                    
PE12 -25973.628866  -9353.479923  10670.673161  -1305.429348                    
PE13  28397.808840  -2519.006825   7978.268620    -27.038851                    
PE14 -19367.419180   -525.776454  19187.925278    397.066898                    
PE15  25574.939973   9671.339750 -11326.629690   -140.395879                    
PE18  13995.457129  13303.709666 -22338.596302    797.060559                    
PE19   2728.125431 -24086.643512 -16990.356154    967.219055                    
PE21   5704.828010 -20947.353948 -20125.301550   -629.577492                    
PE24 -17541.269812   1425.097984  23786.665755  -1111.687250                    
PE25  -6051.621436  20602.476746  20372.432311     11.463393                    
PE26  14097.689842 -13341.554848  22359.509922   -205.430805                    
PE27  17461.389805  -1560.149665 -23848.949495   -509.670036                    
PE30  18777.589756  18446.309632 -13535.282263   -947.889248                    
PE31 -18777.794719 -18510.477954  13462.975684    -43.723237                    
PE33  -7285.359237 -16030.214848  23807.204809     16.202877                    
PE34   7777.610925  15974.298670 -23666.402426   -147.186055                    
PE36 -14618.346473  12977.472079 -22215.177111   -314.131616                    
PG02   9858.211108  13376.388041 -20332.528349   -309.748820                    
PG03  12602.163857  23447.296974   -411.445708    605.464318                    
PG04   4911.250853  17279.230747  19528.106471    483.081850                    
PG05  -2306.023032 -22101.969994  14322.316515   -193.653008                    
PG06  24003.213318  -5813.640136   9999.463570   -131.098227                    
PG07  23554.898330   7880.273634  10546.310689    -18.965182                    
PG08  -3481.979000  23510.471723 -11501.872170    419.189749                    
PG09  12595.121733   8556.542163  21665.300609    453.254494                    
PG10 -15587.950749    924.474254 -21317.740871   -203.985195                    
PG11  13059.229693 -12632.262451  19388.869277   -750.897215                    
PG13  12761.547220 -22388.331165  -6120.987256    686.895699                    
PG14  17628.770819   2879.900837 -19680.296108    544.277741                    
PG15    -47.706688 -23835.062228 -12084.460066    230.323695                    
PG16  -4268.168595  19450.944997  16998.575320   -122.924656                    
PG17  19063.215622  -7804.516439 -16457.294099    550.418665                    
PG18 -24681.633377  -6254.636053   7992.667667   -660.513216                    
PG19  19396.592883 -15385.469287  -9143.476601    565.223954                    
PG20   6657.367783 -15115.333592  20907.756338    368.552786                    
PG21   3456.865774  14771.023446 -21456.623278     96.938489                    
PG22  13856.733053  -5844.772877 -21494.845231    -80.991337                    
PG23 -18590.025926 -12722.859543 -14214.440005    367.674612                    
PG24  -7558.736324 -15015.722372 -21093.575312   -478.979672                    
PG25 -17221.732185 -18827.546173   7497.942529    498.842089                    
PG26 -12007.860027  10338.134004  21122.232067     18.824140                    
PG27 -12125.600523  23314.322583  -1815.446549    -34.651828                    
PG28 -24780.526706   5746.584143   7634.097187   -485.478865                    
PG29 -11253.098508 -10052.572332  21810.680348   -562.147516                    
PG30  26693.481812   -214.292511   -736.256102   -277.537521                    
PG31 -18105.917157  10787.065714  16136.899942   -221.388467                    
PG32 -18573.086752  11211.004803 -14962.973557   -570.716756                    
PR01  -3845.215474 -20594.854987 -14550.193993    105.142125                    
PR03 -11174.827591  13727.268912 -18293.729882    111.799580                    
PR04  -6512.579413  24341.177910  -3870.514424    264.966690                    
PR05   1605.609177  22082.652958  12646.721277    141.039915                    
PR07  11175.587826 -14179.954090  18083.815199     95.415557                    
PR08   6253.734199 -24479.020310   3733.472489     -6.220041                    
PR09  21252.897733  11783.509529  -7874.740315    221.775282                    
PR11   1922.902846 -12169.845380 -22324.611812      6.452749                    
PR12 -14635.044910 -18423.662609  -9848.871078     47.498181                    
PR14 -14941.338161    711.317760  20664.098222     27.262971                    
PR15   -436.143721  13308.576344  21772.579035     73.919279                    
PR16  14611.714358  18347.556000  10074.709755     30.977282                    
PR17 -23471.497618   9634.923961  -2843.023652    141.769462                    
PR18 -13437.015140  12866.358247 -17405.877270    172.946297                    
PR19   1180.224955  10510.255766 -23204.032366   -299.198312                    
PR20  20671.721088    780.842870 -14931.850378   -122.183279                    
PR21  23775.889083  -9004.730925   1859.510153   -153.088649                    
PR22  12510.797406 -12931.001841  18116.879672    -16.797710                    
PR24 -21043.817590    183.056960  14455.690300    -80.969323                    
EOF
